{
"type": "FeatureCollection",
"name": "smoke_256_50_patches",
"crs": { "type": "name", "properties": { "name": "urn:ogc:def:crs:EPSG::3089" } },
"features": [
{ "type": "Feature", "properties": { "patch_id": "hv_256_50_398" }, "geometry": { "type": "Polygon", "coordinates": [ [ [ 4817770.058549081906676, 3785165.40979917999357 ], [ 4817770.058549081906676, 3786445.40979917999357 ], [ 4816490.058549081906676, 3786445.40979917999357 ], [ 4816490.058549081906676, 3785165.40979917999357 ], [ 4817770.058549081906676, 3785165.40979917999357 ] ] ] } },
{ "type": "Feature", "properties": { "patch_id": "hv_256_50_480" }, "geometry": { "type": "Polygon", "coordinates": [ [ [ 4818410.058549081906676, 3793485.40979917999357 ], [ 4818410.058549081906676, 3794765.40979917999357 ], [ 4817130.058549081906676, 3794765.40979917999357 ], [ 4817130.058549081906676, 3793485.40979917999357 ], [ 4818410.058549081906676, 3793485.40979917999357 ] ] ] } },
{ "type": "Feature", "properties": { "patch_id": "hv_256_50_1306" }, "geometry": { "type": "Polygon", "coordinates": [ [ [ 4826090.058549081906676, 3792205.40979917999357 ], [ 4826090.058549081906676, 3793485.40979917999357 ], [ 4824810.058549081906676, 3793485.40979917999357 ], [ 4824810.058549081906676, 3792205.40979917999357 ], [ 4826090.058549081906676, 3792205.40979917999357 ] ] ] } },
{ "type": "Feature", "properties": { "patch_id": "hv_256_50_1962" }, "geometry": { "type": "Polygon", "coordinates": [ [ [ 4832490.058549081906676, 3770445.40979917999357 ], [ 4832490.058549081906676, 3771725.40979917999357 ], [ 4831210.058549081906676, 3771725.40979917999357 ], [ 4831210.058549081906676, 3770445.40979917999357 ], [ 4832490.058549081906676, 3770445.40979917999357 ] ] ] } },
{ "type": "Feature", "properties": { "patch_id": "hv_256_50_2327" }, "geometry": { "type": "Polygon", "coordinates": [ [ [ 4835690.058549081906676, 3783245.40979917999357 ], [ 4835690.058549081906676, 3784525.40979917999357 ], [ 4834410.058549081906676, 3784525.40979917999357 ], [ 4834410.058549081906676, 3783245.40979917999357 ], [ 4835690.058549081906676, 3783245.40979917999357 ] ] ] } },
{ "type": "Feature", "properties": { "patch_id": "hv_256_50_3014" }, "geometry": { "type": "Polygon", "coordinates": [ [ [ 4842090.058549081906676, 3781325.40979917999357 ], [ 4842090.058549081906676, 3782605.40979917999357 ], [ 4840810.058549081906676, 3782605.40979917999357 ], [ 4840810.058549081906676, 3781325.40979917999357 ], [ 4842090.058549081906676, 3781325.40979917999357 ] ] ] } },
{ "type": "Feature", "properties": { "patch_id": "256_50_121" }, "geometry": { "type": "Polygon", "coordinates": [ [ [ 4667853.241910383105278, 3488918.392305567860603 ], [ 4667853.241910383105278, 3490198.392305567860603 ], [ 4666573.241910383105278, 3490198.392305567860603 ], [ 4666573.241910383105278, 3488918.392305567860603 ], [ 4667853.241910383105278, 3488918.392305567860603 ] ] ] } },
{ "type": "Feature", "properties": { "patch_id": "256_50_508" }, "geometry": { "type": "Polygon", "coordinates": [ [ [ 4669133.241910383105278, 3556118.392305567860603 ], [ 4669133.241910383105278, 3557398.392305567860603 ], [ 4667853.241910383105278, 3557398.392305567860603 ], [ 4667853.241910383105278, 3556118.392305567860603 ], [ 4669133.241910383105278, 3556118.392305567860603 ] ] ] } },
{ "type": "Feature", "properties": { "patch_id": "256_50_791" }, "geometry": { "type": "Polygon", "coordinates": [ [ [ 4670413.241910383105278, 3556758.392305567860603 ], [ 4670413.241910383105278, 3558038.392305567860603 ], [ 4669133.241910383105278, 3558038.392305567860603 ], [ 4669133.241910383105278, 3556758.392305567860603 ], [ 4670413.241910383105278, 3556758.392305567860603 ] ] ] } },
{ "type": "Feature", "properties": { "patch_id": "256_50_798" }, "geometry": { "type": "Polygon", "coordinates": [ [ [ 4670413.241910383105278, 3561238.392305567860603 ], [ 4670413.241910383105278, 3562518.392305567860603 ], [ 4669133.241910383105278, 3562518.392305567860603 ], [ 4669133.241910383105278, 3561238.392305567860603 ], [ 4670413.241910383105278, 3561238.392305567860603 ] ] ] } },
{ "type": "Feature", "properties": { "patch_id": "256_50_1164" }, "geometry": { "type": "Polygon", "coordinates": [ [ [ 4672333.241910383105278, 3524758.392305567860603 ], [ 4672333.241910383105278, 3526038.392305567860603 ], [ 4671053.241910383105278, 3526038.392305567860603 ], [ 4671053.241910383105278, 3524758.392305567860603 ], [ 4672333.241910383105278, 3524758.392305567860603 ] ] ] } },
{ "type": "Feature", "properties": { "patch_id": "256_50_1509" }, "geometry": { "type": "Polygon", "coordinates": [ [ [ 4673613.241910383105278, 3565078.392305567860603 ], [ 4673613.241910383105278, 3566358.392305567860603 ], [ 4672333.241910383105278, 3566358.392305567860603 ], [ 4672333.241910383105278, 3565078.392305567860603 ], [ 4673613.241910383105278, 3565078.392305567860603 ] ] ] } },
{ "type": "Feature", "properties": { "patch_id": "256_50_1895" }, "geometry": { "type": "Polygon", "coordinates": [ [ [ 4675533.241910383105278, 3541398.392305567860603 ], [ 4675533.241910383105278, 3542678.392305567860603 ], [ 4674253.241910383105278, 3542678.392305567860603 ], [ 4674253.241910383105278, 3541398.392305567860603 ], [ 4675533.241910383105278, 3541398.392305567860603 ] ] ] } },
{ "type": "Feature", "properties": { "patch_id": "256_50_3709" }, "geometry": { "type": "Polygon", "coordinates": [ [ [ 4683853.241910383105278, 3535638.392305567860603 ], [ 4683853.241910383105278, 3536918.392305567860603 ], [ 4682573.241910383105278, 3536918.392305567860603 ], [ 4682573.241910383105278, 3535638.392305567860603 ], [ 4683853.241910383105278, 3535638.392305567860603 ] ] ] } },
{ "type": "Feature", "properties": { "patch_id": "256_50_4414" }, "geometry": { "type": "Polygon", "coordinates": [ [ [ 4687053.241910383105278, 3538838.392305567860603 ], [ 4687053.241910383105278, 3540118.392305567860603 ], [ 4685773.241910383105278, 3540118.392305567860603 ], [ 4685773.241910383105278, 3538838.392305567860603 ], [ 4687053.241910383105278, 3538838.392305567860603 ] ] ] } },
{ "type": "Feature", "properties": { "patch_id": "256_50_4556" }, "geometry": { "type": "Polygon", "coordinates": [ [ [ 4687693.241910383105278, 3540118.392305567860603 ], [ 4687693.241910383105278, 3541398.392305567860603 ], [ 4686413.241910383105278, 3541398.392305567860603 ], [ 4686413.241910383105278, 3540118.392305567860603 ], [ 4687693.241910383105278, 3540118.392305567860603 ] ] ] } },
{ "type": "Feature", "properties": { "patch_id": "256_50_4962" }, "geometry": { "type": "Polygon", "coordinates": [ [ [ 4689613.241910383105278, 3531158.392305567860603 ], [ 4689613.241910383105278, 3532438.392305567860603 ], [ 4688333.241910383105278, 3532438.392305567860603 ], [ 4688333.241910383105278, 3531158.392305567860603 ], [ 4689613.241910383105278, 3531158.392305567860603 ] ] ] } },
{ "type": "Feature", "properties": { "patch_id": "256_50_5305" }, "geometry": { "type": "Polygon", "coordinates": [ [ [ 4691533.241910383105278, 3481878.392305567860603 ], [ 4691533.241910383105278, 3483158.392305567860603 ], [ 4690253.241910383105278, 3483158.392305567860603 ], [ 4690253.241910383105278, 3481878.392305567860603 ], [ 4691533.241910383105278, 3481878.392305567860603 ] ] ] } },
{ "type": "Feature", "properties": { "patch_id": "256_50_7152" }, "geometry": { "type": "Polygon", "coordinates": [ [ [ 4699853.241910383105278, 3499158.392305567860603 ], [ 4699853.241910383105278, 3500438.392305567860603 ], [ 4698573.241910383105278, 3500438.392305567860603 ], [ 4698573.241910383105278, 3499158.392305567860603 ], [ 4699853.241910383105278, 3499158.392305567860603 ] ] ] } },
{ "type": "Feature", "properties": { "patch_id": "256_50_7434" }, "geometry": { "type": "Polygon", "coordinates": [ [ [ 4701133.241910383105278, 3500438.392305567860603 ], [ 4701133.241910383105278, 3501718.392305567860603 ], [ 4699853.241910383105278, 3501718.392305567860603 ], [ 4699853.241910383105278, 3500438.392305567860603 ], [ 4701133.241910383105278, 3500438.392305567860603 ] ] ] } },
{ "type": "Feature", "properties": { "patch_id": "256_50_7549" }, "geometry": { "type": "Polygon", "coordinates": [ [ [ 4701773.241910383105278, 3484438.392305567860603 ], [ 4701773.241910383105278, 3485718.392305567860603 ], [ 4700493.241910383105278, 3485718.392305567860603 ], [ 4700493.241910383105278, 3484438.392305567860603 ], [ 4701773.241910383105278, 3484438.392305567860603 ] ] ] } },
{ "type": "Feature", "properties": { "patch_id": "256_50_7757" }, "geometry": { "type": "Polygon", "coordinates": [ [ [ 4702413.241910383105278, 3527958.392305567860603 ], [ 4702413.241910383105278, 3529238.392305567860603 ], [ 4701133.241910383105278, 3529238.392305567860603 ], [ 4701133.241910383105278, 3527958.392305567860603 ], [ 4702413.241910383105278, 3527958.392305567860603 ] ] ] } },
{ "type": "Feature", "properties": { "patch_id": "256_50_7795" }, "geometry": { "type": "Polygon", "coordinates": [ [ [ 4702413.241910383105278, 3552278.392305567860603 ], [ 4702413.241910383105278, 3553558.392305567860603 ], [ 4701133.241910383105278, 3553558.392305567860603 ], [ 4701133.241910383105278, 3552278.392305567860603 ], [ 4702413.241910383105278, 3552278.392305567860603 ] ] ] } },
{ "type": "Feature", "properties": { "patch_id": "256_50_8472" }, "geometry": { "type": "Polygon", "coordinates": [ [ [ 4705613.241910383105278, 3537558.392305567860603 ], [ 4705613.241910383105278, 3538838.392305567860603 ], [ 4704333.241910383105278, 3538838.392305567860603 ], [ 4704333.241910383105278, 3537558.392305567860603 ], [ 4705613.241910383105278, 3537558.392305567860603 ] ] ] } },
{ "type": "Feature", "properties": { "patch_id": "256_50_8964" }, "geometry": { "type": "Polygon", "coordinates": [ [ [ 4708173.241910383105278, 3494038.392305567860603 ], [ 4708173.241910383105278, 3495318.392305567860603 ], [ 4706893.241910383105278, 3495318.392305567860603 ], [ 4706893.241910383105278, 3494038.392305567860603 ], [ 4708173.241910383105278, 3494038.392305567860603 ] ] ] } },
{ "type": "Feature", "properties": { "patch_id": "256_50_8999" }, "geometry": { "type": "Polygon", "coordinates": [ [ [ 4708173.241910383105278, 3516438.392305567860603 ], [ 4708173.241910383105278, 3517718.392305567860603 ], [ 4706893.241910383105278, 3517718.392305567860603 ], [ 4706893.241910383105278, 3516438.392305567860603 ], [ 4708173.241910383105278, 3516438.392305567860603 ] ] ] } },
{ "type": "Feature", "properties": { "patch_id": "256_50_9299" }, "geometry": { "type": "Polygon", "coordinates": [ [ [ 4709453.241910383105278, 3529238.392305567860603 ], [ 4709453.241910383105278, 3530518.392305567860603 ], [ 4708173.241910383105278, 3530518.392305567860603 ], [ 4708173.241910383105278, 3529238.392305567860603 ], [ 4709453.241910383105278, 3529238.392305567860603 ] ] ] } },
{ "type": "Feature", "properties": { "patch_id": "256_50_9451" }, "geometry": { "type": "Polygon", "coordinates": [ [ [ 4710093.241910383105278, 3536918.392305567860603 ], [ 4710093.241910383105278, 3538198.392305567860603 ], [ 4708813.241910383105278, 3538198.392305567860603 ], [ 4708813.241910383105278, 3536918.392305567860603 ], [ 4710093.241910383105278, 3536918.392305567860603 ] ] ] } },
{ "type": "Feature", "properties": { "patch_id": "256_50_9679" }, "geometry": { "type": "Polygon", "coordinates": [ [ [ 4711373.241910383105278, 3503638.392305567860603 ], [ 4711373.241910383105278, 3504918.392305567860603 ], [ 4710093.241910383105278, 3504918.392305567860603 ], [ 4710093.241910383105278, 3503638.392305567860603 ], [ 4711373.241910383105278, 3503638.392305567860603 ] ] ] } },
{ "type": "Feature", "properties": { "patch_id": "256_50_10175" }, "geometry": { "type": "Polygon", "coordinates": [ [ [ 4713293.241910383105278, 3552278.392305567860603 ], [ 4713293.241910383105278, 3553558.392305567860603 ], [ 4712013.241910383105278, 3553558.392305567860603 ], [ 4712013.241910383105278, 3552278.392305567860603 ], [ 4713293.241910383105278, 3552278.392305567860603 ] ] ] } },
{ "type": "Feature", "properties": { "patch_id": "256_50_10202" }, "geometry": { "type": "Polygon", "coordinates": [ [ [ 4713933.241910383105278, 3479958.392305567860603 ], [ 4713933.241910383105278, 3481238.392305567860603 ], [ 4712653.241910383105278, 3481238.392305567860603 ], [ 4712653.241910383105278, 3479958.392305567860603 ], [ 4713933.241910383105278, 3479958.392305567860603 ] ] ] } },
{ "type": "Feature", "properties": { "patch_id": "256_50_10290" }, "geometry": { "type": "Polygon", "coordinates": [ [ [ 4713933.241910383105278, 3536278.392305567860603 ], [ 4713933.241910383105278, 3537558.392305567860603 ], [ 4712653.241910383105278, 3537558.392305567860603 ], [ 4712653.241910383105278, 3536278.392305567860603 ], [ 4713933.241910383105278, 3536278.392305567860603 ] ] ] } },
{ "type": "Feature", "properties": { "patch_id": "256_50_10691" }, "geometry": { "type": "Polygon", "coordinates": [ [ [ 4715853.241910383105278, 3524118.392305567860603 ], [ 4715853.241910383105278, 3525398.392305567860603 ], [ 4714573.241910383105278, 3525398.392305567860603 ], [ 4714573.241910383105278, 3524118.392305567860603 ], [ 4715853.241910383105278, 3524118.392305567860603 ] ] ] } },
{ "type": "Feature", "properties": { "patch_id": "256_50_10698" }, "geometry": { "type": "Polygon", "coordinates": [ [ [ 4715853.241910383105278, 3528598.392305567860603 ], [ 4715853.241910383105278, 3529878.392305567860603 ], [ 4714573.241910383105278, 3529878.392305567860603 ], [ 4714573.241910383105278, 3528598.392305567860603 ], [ 4715853.241910383105278, 3528598.392305567860603 ] ] ] } },
{ "type": "Feature", "properties": { "patch_id": "256_50_10733" }, "geometry": { "type": "Polygon", "coordinates": [ [ [ 4715853.241910383105278, 3550998.392305567860603 ], [ 4715853.241910383105278, 3552278.392305567860603 ], [ 4714573.241910383105278, 3552278.392305567860603 ], [ 4714573.241910383105278, 3550998.392305567860603 ], [ 4715853.241910383105278, 3550998.392305567860603 ] ] ] } },
{ "type": "Feature", "properties": { "patch_id": "256_50_10900" }, "geometry": { "type": "Polygon", "coordinates": [ [ [ 4716493.241910383105278, 3568278.392305567860603 ], [ 4716493.241910383105278, 3569558.392305567860603 ], [ 4715213.241910383105278, 3569558.392305567860603 ], [ 4715213.241910383105278, 3568278.392305567860603 ], [ 4716493.241910383105278, 3568278.392305567860603 ] ] ] } },
{ "type": "Feature", "properties": { "patch_id": "256_50_11550" }, "geometry": { "type": "Polygon", "coordinates": [ [ [ 4719693.241910383105278, 3536278.392305567860603 ], [ 4719693.241910383105278, 3537558.392305567860603 ], [ 4718413.241910383105278, 3537558.392305567860603 ], [ 4718413.241910383105278, 3536278.392305567860603 ], [ 4719693.241910383105278, 3536278.392305567860603 ] ] ] } },
{ "type": "Feature", "properties": { "patch_id": "256_50_11729" }, "geometry": { "type": "Polygon", "coordinates": [ [ [ 4720333.241910383105278, 3561238.392305567860603 ], [ 4720333.241910383105278, 3562518.392305567860603 ], [ 4719053.241910383105278, 3562518.392305567860603 ], [ 4719053.241910383105278, 3561238.392305567860603 ], [ 4720333.241910383105278, 3561238.392305567860603 ] ] ] } },
{ "type": "Feature", "properties": { "patch_id": "256_50_12567" }, "geometry": { "type": "Polygon", "coordinates": [ [ [ 4724173.241910383105278, 3559958.392305567860603 ], [ 4724173.241910383105278, 3561238.392305567860603 ], [ 4722893.241910383105278, 3561238.392305567860603 ], [ 4722893.241910383105278, 3559958.392305567860603 ], [ 4724173.241910383105278, 3559958.392305567860603 ] ] ] } },
{ "type": "Feature", "properties": { "patch_id": "256_50_12606" }, "geometry": { "type": "Polygon", "coordinates": [ [ [ 4724813.241910383105278, 3495318.392305567860603 ], [ 4724813.241910383105278, 3496598.392305567860603 ], [ 4723533.241910383105278, 3496598.392305567860603 ], [ 4723533.241910383105278, 3495318.392305567860603 ], [ 4724813.241910383105278, 3495318.392305567860603 ] ] ] } },
{ "type": "Feature", "properties": { "patch_id": "256_50_12705" }, "geometry": { "type": "Polygon", "coordinates": [ [ [ 4724813.241910383105278, 3558678.392305567860603 ], [ 4724813.241910383105278, 3559958.392305567860603 ], [ 4723533.241910383105278, 3559958.392305567860603 ], [ 4723533.241910383105278, 3558678.392305567860603 ], [ 4724813.241910383105278, 3558678.392305567860603 ] ] ] } },
{ "type": "Feature", "properties": { "patch_id": "256_50_12846" }, "geometry": { "type": "Polygon", "coordinates": [ [ [ 4725453.241910383105278, 3559318.392305567860603 ], [ 4725453.241910383105278, 3560598.392305567860603 ], [ 4724173.241910383105278, 3560598.392305567860603 ], [ 4724173.241910383105278, 3559318.392305567860603 ], [ 4725453.241910383105278, 3559318.392305567860603 ] ] ] } },
{ "type": "Feature", "properties": { "patch_id": "256_50_13077" }, "geometry": { "type": "Polygon", "coordinates": [ [ [ 4726733.241910383105278, 3527958.392305567860603 ], [ 4726733.241910383105278, 3529238.392305567860603 ], [ 4725453.241910383105278, 3529238.392305567860603 ], [ 4725453.241910383105278, 3527958.392305567860603 ], [ 4726733.241910383105278, 3527958.392305567860603 ] ] ] } },
{ "type": "Feature", "properties": { "patch_id": "256_50_13313" }, "geometry": { "type": "Polygon", "coordinates": [ [ [ 4728013.241910383105278, 3499798.392305567860603 ], [ 4728013.241910383105278, 3501078.392305567860603 ], [ 4726733.241910383105278, 3501078.392305567860603 ], [ 4726733.241910383105278, 3499798.392305567860603 ], [ 4728013.241910383105278, 3499798.392305567860603 ] ] ] } },
{ "type": "Feature", "properties": { "patch_id": "256_50_14246" }, "geometry": { "type": "Polygon", "coordinates": [ [ [ 4731853.241910383105278, 3559318.392305567860603 ], [ 4731853.241910383105278, 3560598.392305567860603 ], [ 4730573.241910383105278, 3560598.392305567860603 ], [ 4730573.241910383105278, 3559318.392305567860603 ], [ 4731853.241910383105278, 3559318.392305567860603 ] ] ] } },
{ "type": "Feature", "properties": { "patch_id": "256_50_14863" }, "geometry": { "type": "Polygon", "coordinates": [ [ [ 4735053.241910383105278, 3506198.392305567860603 ], [ 4735053.241910383105278, 3507478.392305567860603 ], [ 4733773.241910383105278, 3507478.392305567860603 ], [ 4733773.241910383105278, 3506198.392305567860603 ], [ 4735053.241910383105278, 3506198.392305567860603 ] ] ] } },
{ "type": "Feature", "properties": { "patch_id": "256_50_15656" }, "geometry": { "type": "Polygon", "coordinates": [ [ [ 4738253.241910383105278, 3565718.392305567860603 ], [ 4738253.241910383105278, 3566998.392305567860603 ], [ 4736973.241910383105278, 3566998.392305567860603 ], [ 4736973.241910383105278, 3565718.392305567860603 ], [ 4738253.241910383105278, 3565718.392305567860603 ] ] ] } },
{ "type": "Feature", "properties": { "patch_id": "256_50_16673" }, "geometry": { "type": "Polygon", "coordinates": [ [ [ 4747853.241910383105278, 3554198.392305567860603 ], [ 4747853.241910383105278, 3555478.392305567860603 ], [ 4746573.241910383105278, 3555478.392305567860603 ], [ 4746573.241910383105278, 3554198.392305567860603 ], [ 4747853.241910383105278, 3554198.392305567860603 ] ] ] } },
{ "type": "Feature", "properties": { "patch_id": "256_50_16865" }, "geometry": { "type": "Polygon", "coordinates": [ [ [ 4749773.241910383105278, 3544598.392305567860603 ], [ 4749773.241910383105278, 3545878.392305567860603 ], [ 4748493.241910383105278, 3545878.392305567860603 ], [ 4748493.241910383105278, 3544598.392305567860603 ], [ 4749773.241910383105278, 3544598.392305567860603 ] ] ] } },
{ "type": "Feature", "properties": { "patch_id": "256_50_17585" }, "geometry": { "type": "Polygon", "coordinates": [ [ [ 4756173.241910383105278, 3559958.392305567860603 ], [ 4756173.241910383105278, 3561238.392305567860603 ], [ 4754893.241910383105278, 3561238.392305567860603 ], [ 4754893.241910383105278, 3559958.392305567860603 ], [ 4756173.241910383105278, 3559958.392305567860603 ] ] ] } },
{ "type": "Feature", "properties": { "patch_id": "256_50_18090" }, "geometry": { "type": "Polygon", "coordinates": [ [ [ 4761293.241910383105278, 3524758.392305567860603 ], [ 4761293.241910383105278, 3526038.392305567860603 ], [ 4760013.241910383105278, 3526038.392305567860603 ], [ 4760013.241910383105278, 3524758.392305567860603 ], [ 4761293.241910383105278, 3524758.392305567860603 ] ] ] } },
{ "type": "Feature", "properties": { "patch_id": "256_50_18888" }, "geometry": { "type": "Polygon", "coordinates": [ [ [ 4768333.241910383105278, 3547158.392305567860603 ], [ 4768333.241910383105278, 3548438.392305567860603 ], [ 4767053.241910383105278, 3548438.392305567860603 ], [ 4767053.241910383105278, 3547158.392305567860603 ], [ 4768333.241910383105278, 3547158.392305567860603 ] ] ] } },
{ "type": "Feature", "properties": { "patch_id": "256_50_19331" }, "geometry": { "type": "Polygon", "coordinates": [ [ [ 4772173.241910383105278, 3565718.392305567860603 ], [ 4772173.241910383105278, 3566998.392305567860603 ], [ 4770893.241910383105278, 3566998.392305567860603 ], [ 4770893.241910383105278, 3565718.392305567860603 ], [ 4772173.241910383105278, 3565718.392305567860603 ] ] ] } },
{ "type": "Feature", "properties": { "patch_id": "256_50_19361" }, "geometry": { "type": "Polygon", "coordinates": [ [ [ 4772813.241910383105278, 3540758.392305567860603 ], [ 4772813.241910383105278, 3542038.392305567860603 ], [ 4771533.241910383105278, 3542038.392305567860603 ], [ 4771533.241910383105278, 3540758.392305567860603 ], [ 4772813.241910383105278, 3540758.392305567860603 ] ] ] } },
{ "type": "Feature", "properties": { "patch_id": "256_50_19460" }, "geometry": { "type": "Polygon", "coordinates": [ [ [ 4773453.241910383105278, 3559958.392305567860603 ], [ 4773453.241910383105278, 3561238.392305567860603 ], [ 4772173.241910383105278, 3561238.392305567860603 ], [ 4772173.241910383105278, 3559958.392305567860603 ], [ 4773453.241910383105278, 3559958.392305567860603 ] ] ] } },
{ "type": "Feature", "properties": { "patch_id": "256_50_19588" }, "geometry": { "type": "Polygon", "coordinates": [ [ [ 4774733.241910383105278, 3553558.392305567860603 ], [ 4774733.241910383105278, 3554838.392305567860603 ], [ 4773453.241910383105278, 3554838.392305567860603 ], [ 4773453.241910383105278, 3553558.392305567860603 ], [ 4774733.241910383105278, 3553558.392305567860603 ] ] ] } },
{ "type": "Feature", "properties": { "patch_id": "256_50_19692" }, "geometry": { "type": "Polygon", "coordinates": [ [ [ 4776013.241910383105278, 3531798.392305567860603 ], [ 4776013.241910383105278, 3533078.392305567860603 ], [ 4774733.241910383105278, 3533078.392305567860603 ], [ 4774733.241910383105278, 3531798.392305567860603 ], [ 4776013.241910383105278, 3531798.392305567860603 ] ] ] } },
{ "type": "Feature", "properties": { "patch_id": "256_50_19736" }, "geometry": { "type": "Polygon", "coordinates": [ [ [ 4776013.241910383105278, 3559958.392305567860603 ], [ 4776013.241910383105278, 3561238.392305567860603 ], [ 4774733.241910383105278, 3561238.392305567860603 ], [ 4774733.241910383105278, 3559958.392305567860603 ], [ 4776013.241910383105278, 3559958.392305567860603 ] ] ] } },
{ "type": "Feature", "properties": { "patch_id": "256_50_20018" }, "geometry": { "type": "Polygon", "coordinates": [ [ [ 4778573.241910383105278, 3563798.392305567860603 ], [ 4778573.241910383105278, 3565078.392305567860603 ], [ 4777293.241910383105278, 3565078.392305567860603 ], [ 4777293.241910383105278, 3563798.392305567860603 ], [ 4778573.241910383105278, 3563798.392305567860603 ] ] ] } },
{ "type": "Feature", "properties": { "patch_id": "256_50_20373" }, "geometry": { "type": "Polygon", "coordinates": [ [ [ 4782413.241910383105278, 3526038.392305567860603 ], [ 4782413.241910383105278, 3527318.392305567860603 ], [ 4781133.241910383105278, 3527318.392305567860603 ], [ 4781133.241910383105278, 3526038.392305567860603 ], [ 4782413.241910383105278, 3526038.392305567860603 ] ] ] } },
{ "type": "Feature", "properties": { "patch_id": "256_50_20662" }, "geometry": { "type": "Polygon", "coordinates": [ [ [ 4784973.241910383105278, 3534358.392305567860603 ], [ 4784973.241910383105278, 3535638.392305567860603 ], [ 4783693.241910383105278, 3535638.392305567860603 ], [ 4783693.241910383105278, 3534358.392305567860603 ], [ 4784973.241910383105278, 3534358.392305567860603 ] ] ] } },
{ "type": "Feature", "properties": { "patch_id": "256_50_21499" }, "geometry": { "type": "Polygon", "coordinates": [ [ [ 4792653.241910383105278, 3540118.392305567860603 ], [ 4792653.241910383105278, 3541398.392305567860603 ], [ 4791373.241910383105278, 3541398.392305567860603 ], [ 4791373.241910383105278, 3540118.392305567860603 ], [ 4792653.241910383105278, 3540118.392305567860603 ] ] ] } },
{ "type": "Feature", "properties": { "patch_id": "256_50_22286" }, "geometry": { "type": "Polygon", "coordinates": [ [ [ 4799693.241910383105278, 3558038.392305567860603 ], [ 4799693.241910383105278, 3559318.392305567860603 ], [ 4798413.241910383105278, 3559318.392305567860603 ], [ 4798413.241910383105278, 3558038.392305567860603 ], [ 4799693.241910383105278, 3558038.392305567860603 ] ] ] } },
{ "type": "Feature", "properties": { "patch_id": "256_50_22907" }, "geometry": { "type": "Polygon", "coordinates": [ [ [ 4805453.241910383105278, 3558038.392305567860603 ], [ 4805453.241910383105278, 3559318.392305567860603 ], [ 4804173.241910383105278, 3559318.392305567860603 ], [ 4804173.241910383105278, 3558038.392305567860603 ], [ 4805453.241910383105278, 3558038.392305567860603 ] ] ] } },
{ "type": "Feature", "properties": { "patch_id": "256_50_23163" }, "geometry": { "type": "Polygon", "coordinates": [ [ [ 4808013.241910383105278, 3545238.392305567860603 ], [ 4808013.241910383105278, 3546518.392305567860603 ], [ 4806733.241910383105278, 3546518.392305567860603 ], [ 4806733.241910383105278, 3545238.392305567860603 ], [ 4808013.241910383105278, 3545238.392305567860603 ] ] ] } },
{ "type": "Feature", "properties": { "patch_id": "256_50_23371" }, "geometry": { "type": "Polygon", "coordinates": [ [ [ 4809933.241910383105278, 3545878.392305567860603 ], [ 4809933.241910383105278, 3547158.392305567860603 ], [ 4808653.241910383105278, 3547158.392305567860603 ], [ 4808653.241910383105278, 3545878.392305567860603 ], [ 4809933.241910383105278, 3545878.392305567860603 ] ] ] } },
{ "type": "Feature", "properties": { "patch_id": "sonora_256_50_186" }, "geometry": { "type": "Polygon", "coordinates": [ [ [ 4851928.038819740526378, 3736375.832499695941806 ], [ 4851928.038819740526378, 3737655.832499695941806 ], [ 4850648.038819740526378, 3737655.832499695941806 ], [ 4850648.038819740526378, 3736375.832499695941806 ], [ 4851928.038819740526378, 3736375.832499695941806 ] ] ] } },
{ "type": "Feature", "properties": { "patch_id": "sonora_256_50_1919" }, "geometry": { "type": "Polygon", "coordinates": [ [ [ 4867928.038819740526378, 3741495.832499695941806 ], [ 4867928.038819740526378, 3742775.832499695941806 ], [ 4866648.038819740526378, 3742775.832499695941806 ], [ 4866648.038819740526378, 3741495.832499695941806 ], [ 4867928.038819740526378, 3741495.832499695941806 ] ] ] } },
{ "type": "Feature", "properties": { "patch_id": "sonora_256_50_2029" }, "geometry": { "type": "Polygon", "coordinates": [ [ [ 4869208.038819740526378, 3723575.832499695941806 ], [ 4869208.038819740526378, 3724855.832499695941806 ], [ 4867928.038819740526378, 3724855.832499695941806 ], [ 4867928.038819740526378, 3723575.832499695941806 ], [ 4869208.038819740526378, 3723575.832499695941806 ] ] ] } },
{ "type": "Feature", "properties": { "patch_id": "sonora_256_50_2099" }, "geometry": { "type": "Polygon", "coordinates": [ [ [ 4869848.038819740526378, 3724215.832499695941806 ], [ 4869848.038819740526378, 3725495.832499695941806 ], [ 4868568.038819740526378, 3725495.832499695941806 ], [ 4868568.038819740526378, 3724215.832499695941806 ], [ 4869848.038819740526378, 3724215.832499695941806 ] ] ] } },
{ "type": "Feature", "properties": { "patch_id": "sonora_256_50_2346" }, "geometry": { "type": "Polygon", "coordinates": [ [ [ 4871768.038819740526378, 3749815.832499695941806 ], [ 4871768.038819740526378, 3751095.832499695941806 ], [ 4870488.038819740526378, 3751095.832499695941806 ], [ 4870488.038819740526378, 3749815.832499695941806 ], [ 4871768.038819740526378, 3749815.832499695941806 ] ] ] } },
{ "type": "Feature", "properties": { "patch_id": "sonora_256_50_2390" }, "geometry": { "type": "Polygon", "coordinates": [ [ [ 4872408.038819740526378, 3733815.832499695941806 ], [ 4872408.038819740526378, 3735095.832499695941806 ], [ 4871128.038819740526378, 3735095.832499695941806 ], [ 4871128.038819740526378, 3733815.832499695941806 ], [ 4872408.038819740526378, 3733815.832499695941806 ] ] ] } },
{ "type": "Feature", "properties": { "patch_id": "sonora_256_50_2449" }, "geometry": { "type": "Polygon", "coordinates": [ [ [ 4873048.038819740526378, 3727415.832499695941806 ], [ 4873048.038819740526378, 3728695.832499695941806 ], [ 4871768.038819740526378, 3728695.832499695941806 ], [ 4871768.038819740526378, 3727415.832499695941806 ], [ 4873048.038819740526378, 3727415.832499695941806 ] ] ] } },
{ "type": "Feature", "properties": { "patch_id": "sonora_256_50_2950" }, "geometry": { "type": "Polygon", "coordinates": [ [ [ 4877528.038819740526378, 3738935.832499695941806 ], [ 4877528.038819740526378, 3740215.832499695941806 ], [ 4876248.038819740526378, 3740215.832499695941806 ], [ 4876248.038819740526378, 3738935.832499695941806 ], [ 4877528.038819740526378, 3738935.832499695941806 ] ] ] } },
{ "type": "Feature", "properties": { "patch_id": "sonora_256_50_3025" }, "geometry": { "type": "Polygon", "coordinates": [ [ [ 4878168.038819740526378, 3742775.832499695941806 ], [ 4878168.038819740526378, 3744055.832499695941806 ], [ 4876888.038819740526378, 3744055.832499695941806 ], [ 4876888.038819740526378, 3742775.832499695941806 ], [ 4878168.038819740526378, 3742775.832499695941806 ] ] ] } },
{ "type": "Feature", "properties": { "patch_id": "sonora_256_50_3635" }, "geometry": { "type": "Polygon", "coordinates": [ [ [ 4883928.038819740526378, 3735735.832499695941806 ], [ 4883928.038819740526378, 3737015.832499695941806 ], [ 4882648.038819740526378, 3737015.832499695941806 ], [ 4882648.038819740526378, 3735735.832499695941806 ], [ 4883928.038819740526378, 3735735.832499695941806 ] ] ] } }
]
}
