{
"type": "FeatureCollection",
"name": "smoke_patches",
"crs": { "type": "name", "properties": { "name": "urn:ogc:def:crs:EPSG::3089" } },
"features": [
{ "type": "Feature", "properties": { "patch_id": "hv_256_50_619" }, "geometry": { "type": "Polygon", "coordinates": [ [ [ 4819690.15854827594012, 3794125.30979974148795 ], [ 4819690.15854827594012, 3795405.30979974148795 ], [ 4818410.15854827594012, 3795405.30979974148795 ], [ 4818410.15854827594012, 3794125.30979974148795 ], [ 4819690.15854827594012, 3794125.30979974148795 ] ] ] } },
{ "type": "Feature", "properties": { "patch_id": "hv_256_50_1406" }, "geometry": { "type": "Polygon", "coordinates": [ [ [ 4827370.15854827594012, 3767885.30979974148795 ], [ 4827370.15854827594012, 3769165.30979974148795 ], [ 4826090.15854827594012, 3769165.30979974148795 ], [ 4826090.15854827594012, 3767885.30979974148795 ], [ 4827370.15854827594012, 3767885.30979974148795 ] ] ] } },
{ "type": "Feature", "properties": { "patch_id": "256_50_185" }, "geometry": { "type": "Polygon", "coordinates": [ [ [ 4667853.141914780251682, 3529878.492301777470857 ], [ 4667853.141914780251682, 3531158.492301777470857 ], [ 4666573.141914780251682, 3531158.492301777470857 ], [ 4666573.141914780251682, 3529878.492301777470857 ], [ 4667853.141914780251682, 3529878.492301777470857 ] ] ] } },
{ "type": "Feature", "properties": { "patch_id": "256_50_524" }, "geometry": { "type": "Polygon", "coordinates": [ [ [ 4669133.141914780251682, 3566358.492301777470857 ], [ 4669133.141914780251682, 3567638.492301777470857 ], [ 4667853.141914780251682, 3567638.492301777470857 ], [ 4667853.141914780251682, 3566358.492301777470857 ], [ 4669133.141914780251682, 3566358.492301777470857 ] ] ] } },
{ "type": "Feature", "properties": { "patch_id": "256_50_769" }, "geometry": { "type": "Polygon", "coordinates": [ [ [ 4670413.141914780251682, 3542678.492301777470857 ], [ 4670413.141914780251682, 3543958.492301777470857 ], [ 4669133.141914780251682, 3543958.492301777470857 ], [ 4669133.141914780251682, 3542678.492301777470857 ], [ 4670413.141914780251682, 3542678.492301777470857 ] ] ] } },
{ "type": "Feature", "properties": { "patch_id": "256_50_3997" }, "geometry": { "type": "Polygon", "coordinates": [ [ [ 4685133.141914780251682, 3540758.492301777470857 ], [ 4685133.141914780251682, 3542038.492301777470857 ], [ 4683853.141914780251682, 3542038.492301777470857 ], [ 4683853.141914780251682, 3540758.492301777470857 ], [ 4685133.141914780251682, 3540758.492301777470857 ] ] ] } },
{ "type": "Feature", "properties": { "patch_id": "256_50_4024" }, "geometry": { "type": "Polygon", "coordinates": [ [ [ 4685133.141914780251682, 3558038.492301777470857 ], [ 4685133.141914780251682, 3559318.492301777470857 ], [ 4683853.141914780251682, 3559318.492301777470857 ], [ 4683853.141914780251682, 3558038.492301777470857 ], [ 4685133.141914780251682, 3558038.492301777470857 ] ] ] } },
{ "type": "Feature", "properties": { "patch_id": "256_50_4170" }, "geometry": { "type": "Polygon", "coordinates": [ [ [ 4685773.141914780251682, 3561878.492301777470857 ], [ 4685773.141914780251682, 3563158.492301777470857 ], [ 4684493.141914780251682, 3563158.492301777470857 ], [ 4684493.141914780251682, 3561878.492301777470857 ], [ 4685773.141914780251682, 3561878.492301777470857 ] ] ] } },
{ "type": "Feature", "properties": { "patch_id": "256_50_6277" }, "geometry": { "type": "Polygon", "coordinates": [ [ [ 4695373.141914780251682, 3566358.492301777470857 ], [ 4695373.141914780251682, 3567638.492301777470857 ], [ 4694093.141914780251682, 3567638.492301777470857 ], [ 4694093.141914780251682, 3566358.492301777470857 ], [ 4695373.141914780251682, 3566358.492301777470857 ] ] ] } },
{ "type": "Feature", "properties": { "patch_id": "256_50_6506" }, "geometry": { "type": "Polygon", "coordinates": [ [ [ 4696653.141914780251682, 3533718.492301777470857 ], [ 4696653.141914780251682, 3534998.492301777470857 ], [ 4695373.141914780251682, 3534998.492301777470857 ], [ 4695373.141914780251682, 3533718.492301777470857 ], [ 4696653.141914780251682, 3533718.492301777470857 ] ] ] } },
{ "type": "Feature", "properties": { "patch_id": "256_50_7327" }, "geometry": { "type": "Polygon", "coordinates": [ [ [ 4700493.141914780251682, 3521558.492301777470857 ], [ 4700493.141914780251682, 3522838.492301777470857 ], [ 4699213.141914780251682, 3522838.492301777470857 ], [ 4699213.141914780251682, 3521558.492301777470857 ], [ 4700493.141914780251682, 3521558.492301777470857 ] ] ] } },
{ "type": "Feature", "properties": { "patch_id": "256_50_9341" }, "geometry": { "type": "Polygon", "coordinates": [ [ [ 4709453.141914780251682, 3556118.492301777470857 ], [ 4709453.141914780251682, 3557398.492301777470857 ], [ 4708173.141914780251682, 3557398.492301777470857 ], [ 4708173.141914780251682, 3556118.492301777470857 ], [ 4709453.141914780251682, 3556118.492301777470857 ] ] ] } },
{ "type": "Feature", "properties": { "patch_id": "256_50_9468" }, "geometry": { "type": "Polygon", "coordinates": [ [ [ 4710093.141914780251682, 3547798.492301777470857 ], [ 4710093.141914780251682, 3549078.492301777470857 ], [ 4708813.141914780251682, 3549078.492301777470857 ], [ 4708813.141914780251682, 3547798.492301777470857 ], [ 4710093.141914780251682, 3547798.492301777470857 ] ] ] } },
{ "type": "Feature", "properties": { "patch_id": "256_50_9977" }, "geometry": { "type": "Polygon", "coordinates": [ [ [ 4712653.141914780251682, 3515158.492301777470857 ], [ 4712653.141914780251682, 3516438.492301777470857 ], [ 4711373.141914780251682, 3516438.492301777470857 ], [ 4711373.141914780251682, 3515158.492301777470857 ], [ 4712653.141914780251682, 3515158.492301777470857 ] ] ] } },
{ "type": "Feature", "properties": { "patch_id": "256_50_10852" }, "geometry": { "type": "Polygon", "coordinates": [ [ [ 4716493.141914780251682, 3537558.492301777470857 ], [ 4716493.141914780251682, 3538838.492301777470857 ], [ 4715213.141914780251682, 3538838.492301777470857 ], [ 4715213.141914780251682, 3537558.492301777470857 ], [ 4716493.141914780251682, 3537558.492301777470857 ] ] ] } },
{ "type": "Feature", "properties": { "patch_id": "256_50_12082" }, "geometry": { "type": "Polygon", "coordinates": [ [ [ 4722253.141914780251682, 3518358.492301777470857 ], [ 4722253.141914780251682, 3519638.492301777470857 ], [ 4720973.141914780251682, 3519638.492301777470857 ], [ 4720973.141914780251682, 3518358.492301777470857 ], [ 4722253.141914780251682, 3518358.492301777470857 ] ] ] } },
{ "type": "Feature", "properties": { "patch_id": "256_50_13697" }, "geometry": { "type": "Polygon", "coordinates": [ [ [ 4729293.141914780251682, 3566358.492301777470857 ], [ 4729293.141914780251682, 3567638.492301777470857 ], [ 4728013.141914780251682, 3567638.492301777470857 ], [ 4728013.141914780251682, 3566358.492301777470857 ], [ 4729293.141914780251682, 3566358.492301777470857 ] ] ] } },
{ "type": "Feature", "properties": { "patch_id": "256_50_14821" }, "geometry": { "type": "Polygon", "coordinates": [ [ [ 4735053.141914780251682, 3479318.492301777470857 ], [ 4735053.141914780251682, 3480598.492301777470857 ], [ 4733773.141914780251682, 3480598.492301777470857 ], [ 4733773.141914780251682, 3479318.492301777470857 ], [ 4735053.141914780251682, 3479318.492301777470857 ] ] ] } },
{ "type": "Feature", "properties": { "patch_id": "256_50_15789" }, "geometry": { "type": "Polygon", "coordinates": [ [ [ 4739533.141914780251682, 3562518.492301777470857 ], [ 4739533.141914780251682, 3563798.492301777470857 ], [ 4738253.141914780251682, 3563798.492301777470857 ], [ 4738253.141914780251682, 3562518.492301777470857 ], [ 4739533.141914780251682, 3562518.492301777470857 ] ] ] } },
{ "type": "Feature", "properties": { "patch_id": "256_50_16692" }, "geometry": { "type": "Polygon", "coordinates": [ [ [ 4747853.141914780251682, 3566358.492301777470857 ], [ 4747853.141914780251682, 3567638.492301777470857 ], [ 4746573.141914780251682, 3567638.492301777470857 ], [ 4746573.141914780251682, 3566358.492301777470857 ], [ 4747853.141914780251682, 3566358.492301777470857 ] ] ] } },
{ "type": "Feature", "properties": { "patch_id": "256_50_17157" }, "geometry": { "type": "Polygon", "coordinates": [ [ [ 4752333.141914780251682, 3554838.492301777470857 ], [ 4752333.141914780251682, 3556118.492301777470857 ], [ 4751053.141914780251682, 3556118.492301777470857 ], [ 4751053.141914780251682, 3554838.492301777470857 ], [ 4752333.141914780251682, 3554838.492301777470857 ] ] ] } },
{ "type": "Feature", "properties": { "patch_id": "256_50_18130" }, "geometry": { "type": "Polygon", "coordinates": [ [ [ 4761293.141914780251682, 3550358.492301777470857 ], [ 4761293.141914780251682, 3551638.492301777470857 ], [ 4760013.141914780251682, 3551638.492301777470857 ], [ 4760013.141914780251682, 3550358.492301777470857 ], [ 4761293.141914780251682, 3550358.492301777470857 ] ] ] } },
{ "type": "Feature", "properties": { "patch_id": "256_50_19536" }, "geometry": { "type": "Polygon", "coordinates": [ [ [ 4774093.141914780251682, 3564438.492301777470857 ], [ 4774093.141914780251682, 3565718.492301777470857 ], [ 4772813.141914780251682, 3565718.492301777470857 ], [ 4772813.141914780251682, 3564438.492301777470857 ], [ 4774093.141914780251682, 3564438.492301777470857 ] ] ] } },
{ "type": "Feature", "properties": { "patch_id": "sonora_256_50_739" }, "geometry": { "type": "Polygon", "coordinates": [ [ [ 4857048.038819740526378, 3737015.832499695941806 ], [ 4857048.038819740526378, 3738295.832499695941806 ], [ 4855768.038819740526378, 3738295.832499695941806 ], [ 4855768.038819740526378, 3737015.832499695941806 ], [ 4857048.038819740526378, 3737015.832499695941806 ] ] ] } },
{ "type": "Feature", "properties": { "patch_id": "sonora_256_50_975" }, "geometry": { "type": "Polygon", "coordinates": [ [ [ 4859608.038819740526378, 3711415.832499695941806 ], [ 4859608.038819740526378, 3712695.832499695941806 ], [ 4858328.038819740526378, 3712695.832499695941806 ], [ 4858328.038819740526378, 3711415.832499695941806 ], [ 4859608.038819740526378, 3711415.832499695941806 ] ] ] } },
{ "type": "Feature", "properties": { "patch_id": "sonora_256_50_1919" }, "geometry": { "type": "Polygon", "coordinates": [ [ [ 4867928.038819740526378, 3741495.832499695941806 ], [ 4867928.038819740526378, 3742775.832499695941806 ], [ 4866648.038819740526378, 3742775.832499695941806 ], [ 4866648.038819740526378, 3741495.832499695941806 ], [ 4867928.038819740526378, 3741495.832499695941806 ] ] ] } },
{ "type": "Feature", "properties": { "patch_id": "sonora_256_50_2481" }, "geometry": { "type": "Polygon", "coordinates": [ [ [ 4873048.038819740526378, 3747895.832499695941806 ], [ 4873048.038819740526378, 3749175.832499695941806 ], [ 4871768.038819740526378, 3749175.832499695941806 ], [ 4871768.038819740526378, 3747895.832499695941806 ], [ 4873048.038819740526378, 3747895.832499695941806 ] ] ] } },
{ "type": "Feature", "properties": { "patch_id": "sonora_256_50_3239" }, "geometry": { "type": "Polygon", "coordinates": [ [ [ 4880088.038819740526378, 3747255.832499695941806 ], [ 4880088.038819740526378, 3748535.832499695941806 ], [ 4878808.038819740526378, 3748535.832499695941806 ], [ 4878808.038819740526378, 3747255.832499695941806 ], [ 4880088.038819740526378, 3747255.832499695941806 ] ] ] } }
]
}
