{
"type": "FeatureCollection",
"name": "smoke_train",
"crs": { "type": "name", "properties": { "name": "urn:ogc:def:crs:EPSG::3089" } },
"features": [
{ "type": "Feature", "properties": { "patch_id": "256_50_7152" }, "geometry": { "type": "Polygon", "coordinates": [ [ [ 4699853.241910383105278, 3499158.392305567860603 ], [ 4699853.241910383105278, 3500438.392305567860603 ], [ 4698573.241910383105278, 3500438.392305567860603 ], [ 4698573.241910383105278, 3499158.392305567860603 ], [ 4699853.241910383105278, 3499158.392305567860603 ] ] ] } },
{ "type": "Feature", "properties": { "patch_id": "256_50_791" }, "geometry": { "type": "Polygon", "coordinates": [ [ [ 4670413.241910383105278, 3556758.392305567860603 ], [ 4670413.241910383105278, 3558038.392305567860603 ], [ 4669133.241910383105278, 3558038.392305567860603 ], [ 4669133.241910383105278, 3556758.392305567860603 ], [ 4670413.241910383105278, 3556758.392305567860603 ] ] ] } },
{ "type": "Feature", "properties": { "patch_id": "256_50_10175" }, "geometry": { "type": "Polygon", "coordinates": [ [ [ 4713293.241910383105278, 3552278.392305567860603 ], [ 4713293.241910383105278, 3553558.392305567860603 ], [ 4712013.241910383105278, 3553558.392305567860603 ], [ 4712013.241910383105278, 3552278.392305567860603 ], [ 4713293.241910383105278, 3552278.392305567860603 ] ] ] } },
{ "type": "Feature", "properties": { "patch_id": "256_50_1164" }, "geometry": { "type": "Polygon", "coordinates": [ [ [ 4672333.241910383105278, 3524758.392305567860603 ], [ 4672333.241910383105278, 3526038.392305567860603 ], [ 4671053.241910383105278, 3526038.392305567860603 ], [ 4671053.241910383105278, 3524758.392305567860603 ], [ 4672333.241910383105278, 3524758.392305567860603 ] ] ] } },
{ "type": "Feature", "properties": { "patch_id": "256_50_21499" }, "geometry": { "type": "Polygon", "coordinates": [ [ [ 4792653.241910383105278, 3540118.392305567860603 ], [ 4792653.241910383105278, 3541398.392305567860603 ], [ 4791373.241910383105278, 3541398.392305567860603 ], [ 4791373.241910383105278, 3540118.392305567860603 ], [ 4792653.241910383105278, 3540118.392305567860603 ] ] ] } },
{ "type": "Feature", "properties": { "patch_id": "256_50_10900" }, "geometry": { "type": "Polygon", "coordinates": [ [ [ 4716493.241910383105278, 3568278.392305567860603 ], [ 4716493.241910383105278, 3569558.392305567860603 ], [ 4715213.241910383105278, 3569558.392305567860603 ], [ 4715213.241910383105278, 3568278.392305567860603 ], [ 4716493.241910383105278, 3568278.392305567860603 ] ] ] } },
{ "type": "Feature", "properties": { "patch_id": "256_50_23163" }, "geometry": { "type": "Polygon", "coordinates": [ [ [ 4808013.241910383105278, 3545238.392305567860603 ], [ 4808013.241910383105278, 3546518.392305567860603 ], [ 4806733.241910383105278, 3546518.392305567860603 ], [ 4806733.241910383105278, 3545238.392305567860603 ], [ 4808013.241910383105278, 3545238.392305567860603 ] ] ] } },
{ "type": "Feature", "properties": { "patch_id": "256_50_23371" }, "geometry": { "type": "Polygon", "coordinates": [ [ [ 4809933.241910383105278, 3545878.392305567860603 ], [ 4809933.241910383105278, 3547158.392305567860603 ], [ 4808653.241910383105278, 3547158.392305567860603 ], [ 4808653.241910383105278, 3545878.392305567860603 ], [ 4809933.241910383105278, 3545878.392305567860603 ] ] ] } },
{ "type": "Feature", "properties": { "patch_id": "256_50_508" }, "geometry": { "type": "Polygon", "coordinates": [ [ [ 4669133.241910383105278, 3556118.392305567860603 ], [ 4669133.241910383105278, 3557398.392305567860603 ], [ 4667853.241910383105278, 3557398.392305567860603 ], [ 4667853.241910383105278, 3556118.392305567860603 ], [ 4669133.241910383105278, 3556118.392305567860603 ] ] ] } },
{ "type": "Feature", "properties": { "patch_id": "256_50_13077" }, "geometry": { "type": "Polygon", "coordinates": [ [ [ 4726733.241910383105278, 3527958.392305567860603 ], [ 4726733.241910383105278, 3529238.392305567860603 ], [ 4725453.241910383105278, 3529238.392305567860603 ], [ 4725453.241910383105278, 3527958.392305567860603 ], [ 4726733.241910383105278, 3527958.392305567860603 ] ] ] } },
{ "type": "Feature", "properties": { "patch_id": "256_50_22907" }, "geometry": { "type": "Polygon", "coordinates": [ [ [ 4805453.241910383105278, 3558038.392305567860603 ], [ 4805453.241910383105278, 3559318.392305567860603 ], [ 4804173.241910383105278, 3559318.392305567860603 ], [ 4804173.241910383105278, 3558038.392305567860603 ], [ 4805453.241910383105278, 3558038.392305567860603 ] ] ] } },
{ "type": "Feature", "properties": { "patch_id": "256_50_10733" }, "geometry": { "type": "Polygon", "coordinates": [ [ [ 4715853.241910383105278, 3550998.392305567860603 ], [ 4715853.241910383105278, 3552278.392305567860603 ], [ 4714573.241910383105278, 3552278.392305567860603 ], [ 4714573.241910383105278, 3550998.392305567860603 ], [ 4715853.241910383105278, 3550998.392305567860603 ] ] ] } },
{ "type": "Feature", "properties": { "patch_id": "256_50_7795" }, "geometry": { "type": "Polygon", "coordinates": [ [ [ 4702413.241910383105278, 3552278.392305567860603 ], [ 4702413.241910383105278, 3553558.392305567860603 ], [ 4701133.241910383105278, 3553558.392305567860603 ], [ 4701133.241910383105278, 3552278.392305567860603 ], [ 4702413.241910383105278, 3552278.392305567860603 ] ] ] } },
{ "type": "Feature", "properties": { "patch_id": "256_50_19736" }, "geometry": { "type": "Polygon", "coordinates": [ [ [ 4776013.241910383105278, 3559958.392305567860603 ], [ 4776013.241910383105278, 3561238.392305567860603 ], [ 4774733.241910383105278, 3561238.392305567860603 ], [ 4774733.241910383105278, 3559958.392305567860603 ], [ 4776013.241910383105278, 3559958.392305567860603 ] ] ] } },
{ "type": "Feature", "properties": { "patch_id": "256_50_15656" }, "geometry": { "type": "Polygon", "coordinates": [ [ [ 4738253.241910383105278, 3565718.392305567860603 ], [ 4738253.241910383105278, 3566998.392305567860603 ], [ 4736973.241910383105278, 3566998.392305567860603 ], [ 4736973.241910383105278, 3565718.392305567860603 ], [ 4738253.241910383105278, 3565718.392305567860603 ] ] ] } },
{ "type": "Feature", "properties": { "patch_id": "256_50_12606" }, "geometry": { "type": "Polygon", "coordinates": [ [ [ 4724813.241910383105278, 3495318.392305567860603 ], [ 4724813.241910383105278, 3496598.392305567860603 ], [ 4723533.241910383105278, 3496598.392305567860603 ], [ 4723533.241910383105278, 3495318.392305567860603 ], [ 4724813.241910383105278, 3495318.392305567860603 ] ] ] } },
{ "type": "Feature", "properties": { "patch_id": "256_50_12705" }, "geometry": { "type": "Polygon", "coordinates": [ [ [ 4724813.241910383105278, 3558678.392305567860603 ], [ 4724813.241910383105278, 3559958.392305567860603 ], [ 4723533.241910383105278, 3559958.392305567860603 ], [ 4723533.241910383105278, 3558678.392305567860603 ], [ 4724813.241910383105278, 3558678.392305567860603 ] ] ] } },
{ "type": "Feature", "properties": { "patch_id": "256_50_22286" }, "geometry": { "type": "Polygon", "coordinates": [ [ [ 4799693.241910383105278, 3558038.392305567860603 ], [ 4799693.241910383105278, 3559318.392305567860603 ], [ 4798413.241910383105278, 3559318.392305567860603 ], [ 4798413.241910383105278, 3558038.392305567860603 ], [ 4799693.241910383105278, 3558038.392305567860603 ] ] ] } },
{ "type": "Feature", "properties": { "patch_id": "256_50_18888" }, "geometry": { "type": "Polygon", "coordinates": [ [ [ 4768333.241910383105278, 3547158.392305567860603 ], [ 4768333.241910383105278, 3548438.392305567860603 ], [ 4767053.241910383105278, 3548438.392305567860603 ], [ 4767053.241910383105278, 3547158.392305567860603 ], [ 4768333.241910383105278, 3547158.392305567860603 ] ] ] } },
{ "type": "Feature", "properties": { "patch_id": "256_50_798" }, "geometry": { "type": "Polygon", "coordinates": [ [ [ 4670413.241910383105278, 3561238.392305567860603 ], [ 4670413.241910383105278, 3562518.392305567860603 ], [ 4669133.241910383105278, 3562518.392305567860603 ], [ 4669133.241910383105278, 3561238.392305567860603 ], [ 4670413.241910383105278, 3561238.392305567860603 ] ] ] } },
{ "type": "Feature", "properties": { "patch_id": "256_50_16865" }, "geometry": { "type": "Polygon", "coordinates": [ [ [ 4749773.241910383105278, 3544598.392305567860603 ], [ 4749773.241910383105278, 3545878.392305567860603 ], [ 4748493.241910383105278, 3545878.392305567860603 ], [ 4748493.241910383105278, 3544598.392305567860603 ], [ 4749773.241910383105278, 3544598.392305567860603 ] ] ] } },
{ "type": "Feature", "properties": { "patch_id": "256_50_19460" }, "geometry": { "type": "Polygon", "coordinates": [ [ [ 4773453.241910383105278, 3559958.392305567860603 ], [ 4773453.241910383105278, 3561238.392305567860603 ], [ 4772173.241910383105278, 3561238.392305567860603 ], [ 4772173.241910383105278, 3559958.392305567860603 ], [ 4773453.241910383105278, 3559958.392305567860603 ] ] ] } },
{ "type": "Feature", "properties": { "patch_id": "256_50_1509" }, "geometry": { "type": "Polygon", "coordinates": [ [ [ 4673613.241910383105278, 3565078.392305567860603 ], [ 4673613.241910383105278, 3566358.392305567860603 ], [ 4672333.241910383105278, 3566358.392305567860603 ], [ 4672333.241910383105278, 3565078.392305567860603 ], [ 4673613.241910383105278, 3565078.392305567860603 ] ] ] } },
{ "type": "Feature", "properties": { "patch_id": "256_50_20662" }, "geometry": { "type": "Polygon", "coordinates": [ [ [ 4784973.241910383105278, 3534358.392305567860603 ], [ 4784973.241910383105278, 3535638.392305567860603 ], [ 4783693.241910383105278, 3535638.392305567860603 ], [ 4783693.241910383105278, 3534358.392305567860603 ], [ 4784973.241910383105278, 3534358.392305567860603 ] ] ] } },
{ "type": "Feature", "properties": { "patch_id": "256_50_20373" }, "geometry": { "type": "Polygon", "coordinates": [ [ [ 4782413.241910383105278, 3526038.392305567860603 ], [ 4782413.241910383105278, 3527318.392305567860603 ], [ 4781133.241910383105278, 3527318.392305567860603 ], [ 4781133.241910383105278, 3526038.392305567860603 ], [ 4782413.241910383105278, 3526038.392305567860603 ] ] ] } },
{ "type": "Feature", "properties": { "patch_id": "256_50_12846" }, "geometry": { "type": "Polygon", "coordinates": [ [ [ 4725453.241910383105278, 3559318.392305567860603 ], [ 4725453.241910383105278, 3560598.392305567860603 ], [ 4724173.241910383105278, 3560598.392305567860603 ], [ 4724173.241910383105278, 3559318.392305567860603 ], [ 4725453.241910383105278, 3559318.392305567860603 ] ] ] } },
{ "type": "Feature", "properties": { "patch_id": "256_50_18090" }, "geometry": { "type": "Polygon", "coordinates": [ [ [ 4761293.241910383105278, 3524758.392305567860603 ], [ 4761293.241910383105278, 3526038.392305567860603 ], [ 4760013.241910383105278, 3526038.392305567860603 ], [ 4760013.241910383105278, 3524758.392305567860603 ], [ 4761293.241910383105278, 3524758.392305567860603 ] ] ] } },
{ "type": "Feature", "properties": { "patch_id": "256_50_11729" }, "geometry": { "type": "Polygon", "coordinates": [ [ [ 4720333.241910383105278, 3561238.392305567860603 ], [ 4720333.241910383105278, 3562518.392305567860603 ], [ 4719053.241910383105278, 3562518.392305567860603 ], [ 4719053.241910383105278, 3561238.392305567860603 ], [ 4720333.241910383105278, 3561238.392305567860603 ] ] ] } },
{ "type": "Feature", "properties": { "patch_id": "256_50_11550" }, "geometry": { "type": "Polygon", "coordinates": [ [ [ 4719693.241910383105278, 3536278.392305567860603 ], [ 4719693.241910383105278, 3537558.392305567860603 ], [ 4718413.241910383105278, 3537558.392305567860603 ], [ 4718413.241910383105278, 3536278.392305567860603 ], [ 4719693.241910383105278, 3536278.392305567860603 ] ] ] } },
{ "type": "Feature", "properties": { "patch_id": "256_50_8472" }, "geometry": { "type": "Polygon", "coordinates": [ [ [ 4705613.241910383105278, 3537558.392305567860603 ], [ 4705613.241910383105278, 3538838.392305567860603 ], [ 4704333.241910383105278, 3538838.392305567860603 ], [ 4704333.241910383105278, 3537558.392305567860603 ], [ 4705613.241910383105278, 3537558.392305567860603 ] ] ] } },
{ "type": "Feature", "properties": { "patch_id": "256_50_19692" }, "geometry": { "type": "Polygon", "coordinates": [ [ [ 4776013.241910383105278, 3531798.392305567860603 ], [ 4776013.241910383105278, 3533078.392305567860603 ], [ 4774733.241910383105278, 3533078.392305567860603 ], [ 4774733.241910383105278, 3531798.392305567860603 ], [ 4776013.241910383105278, 3531798.392305567860603 ] ] ] } },
{ "type": "Feature", "properties": { "patch_id": "256_50_121" }, "geometry": { "type": "Polygon", "coordinates": [ [ [ 4667853.241910383105278, 3488918.392305567860603 ], [ 4667853.241910383105278, 3490198.392305567860603 ], [ 4666573.241910383105278, 3490198.392305567860603 ], [ 4666573.241910383105278, 3488918.392305567860603 ], [ 4667853.241910383105278, 3488918.392305567860603 ] ] ] } }
]
}
