{
"type": "FeatureCollection",
"name": "smoke_v1-1_cross",
"crs": { "type": "name", "properties": { "name": "urn:ogc:def:crs:EPSG::3089" } },
"features": [
{ "type": "Feature", "properties": { "patch_id": "sonora_256_50_739" }, "geometry": { "type": "Polygon", "coordinates": [ [ [ 4857048.038819740526378, 3737015.832499695941806 ], [ 4857048.038819740526378, 3738295.832499695941806 ], [ 4855768.038819740526378, 3738295.832499695941806 ], [ 4855768.038819740526378, 3737015.832499695941806 ], [ 4857048.038819740526378, 3737015.832499695941806 ] ] ] } },
{ "type": "Feature", "properties": { "patch_id": "hv_256_50_619" }, "geometry": { "type": "Polygon", "coordinates": [ [ [ 4819690.058549081906676, 3794125.40979917999357 ], [ 4819690.058549081906676, 3795405.40979917999357 ], [ 4818410.058549081906676, 3795405.40979917999357 ], [ 4818410.058549081906676, 3794125.40979917999357 ], [ 4819690.058549081906676, 3794125.40979917999357 ] ] ] } },
{ "type": "Feature", "properties": { "patch_id": "sonora_256_50_1919" }, "geometry": { "type": "Polygon", "coordinates": [ [ [ 4867928.038819740526378, 3741495.832499695941806 ], [ 4867928.038819740526378, 3742775.832499695941806 ], [ 4866648.038819740526378, 3742775.832499695941806 ], [ 4866648.038819740526378, 3741495.832499695941806 ], [ 4867928.038819740526378, 3741495.832499695941806 ] ] ] } },
{ "type": "Feature", "properties": { "patch_id": "sonora_256_50_2481" }, "geometry": { "type": "Polygon", "coordinates": [ [ [ 4873048.038819740526378, 3747895.832499695941806 ], [ 4873048.038819740526378, 3749175.832499695941806 ], [ 4871768.038819740526378, 3749175.832499695941806 ], [ 4871768.038819740526378, 3747895.832499695941806 ], [ 4873048.038819740526378, 3747895.832499695941806 ] ] ] } },
{ "type": "Feature", "properties": { "patch_id": "sonora_256_50_975" }, "geometry": { "type": "Polygon", "coordinates": [ [ [ 4859608.038819740526378, 3711415.832499695941806 ], [ 4859608.038819740526378, 3712695.832499695941806 ], [ 4858328.038819740526378, 3712695.832499695941806 ], [ 4858328.038819740526378, 3711415.832499695941806 ], [ 4859608.038819740526378, 3711415.832499695941806 ] ] ] } },
{ "type": "Feature", "properties": { "patch_id": "hv_256_50_1406" }, "geometry": { "type": "Polygon", "coordinates": [ [ [ 4827370.058549081906676, 3767885.40979917999357 ], [ 4827370.058549081906676, 3769165.40979917999357 ], [ 4826090.058549081906676, 3769165.40979917999357 ], [ 4826090.058549081906676, 3767885.40979917999357 ], [ 4827370.058549081906676, 3767885.40979917999357 ] ] ] } },
{ "type": "Feature", "properties": { "patch_id": "sonora_256_50_3239" }, "geometry": { "type": "Polygon", "coordinates": [ [ [ 4880088.038819740526378, 3747255.832499695941806 ], [ 4880088.038819740526378, 3748535.832499695941806 ], [ 4878808.038819740526378, 3748535.832499695941806 ], [ 4878808.038819740526378, 3747255.832499695941806 ], [ 4880088.038819740526378, 3747255.832499695941806 ] ] ] } }
]
}
