{
"type": "FeatureCollection",
"name": "smoke_v1-1_patches",
"crs": { "type": "name", "properties": { "name": "urn:ogc:def:crs:EPSG::3089" } },
"features": [
{ "type": "Feature", "properties": { "patch_id": "hv_256_50_619" }, "geometry": { "type": "Polygon", "coordinates": [ [ [ 4819690.058549081906676, 3794125.40979917999357 ], [ 4819690.058549081906676, 3795405.40979917999357 ], [ 4818410.058549081906676, 3795405.40979917999357 ], [ 4818410.058549081906676, 3794125.40979917999357 ], [ 4819690.058549081906676, 3794125.40979917999357 ] ] ] } },
{ "type": "Feature", "properties": { "patch_id": "hv_256_50_1406" }, "geometry": { "type": "Polygon", "coordinates": [ [ [ 4827370.058549081906676, 3767885.40979917999357 ], [ 4827370.058549081906676, 3769165.40979917999357 ], [ 4826090.058549081906676, 3769165.40979917999357 ], [ 4826090.058549081906676, 3767885.40979917999357 ], [ 4827370.058549081906676, 3767885.40979917999357 ] ] ] } },
{ "type": "Feature", "properties": { "patch_id": "256_50_185" }, "geometry": { "type": "Polygon", "coordinates": [ [ [ 4667853.241910383105278, 3529878.392305567860603 ], [ 4667853.241910383105278, 3531158.392305567860603 ], [ 4666573.241910383105278, 3531158.392305567860603 ], [ 4666573.241910383105278, 3529878.392305567860603 ], [ 4667853.241910383105278, 3529878.392305567860603 ] ] ] } },
{ "type": "Feature", "properties": { "patch_id": "256_50_524" }, "geometry": { "type": "Polygon", "coordinates": [ [ [ 4669133.241910383105278, 3566358.392305567860603 ], [ 4669133.241910383105278, 3567638.392305567860603 ], [ 4667853.241910383105278, 3567638.392305567860603 ], [ 4667853.241910383105278, 3566358.392305567860603 ], [ 4669133.241910383105278, 3566358.392305567860603 ] ] ] } },
{ "type": "Feature", "properties": { "patch_id": "256_50_769" }, "geometry": { "type": "Polygon", "coordinates": [ [ [ 4670413.241910383105278, 3542678.392305567860603 ], [ 4670413.241910383105278, 3543958.392305567860603 ], [ 4669133.241910383105278, 3543958.392305567860603 ], [ 4669133.241910383105278, 3542678.392305567860603 ], [ 4670413.241910383105278, 3542678.392305567860603 ] ] ] } },
{ "type": "Feature", "properties": { "patch_id": "256_50_3146" }, "geometry": { "type": "Polygon", "coordinates": [ [ [ 4681293.241910383105278, 3533718.392305567860603 ], [ 4681293.241910383105278, 3534998.392305567860603 ], [ 4680013.241910383105278, 3534998.392305567860603 ], [ 4680013.241910383105278, 3533718.392305567860603 ], [ 4681293.241910383105278, 3533718.392305567860603 ] ] ] } },
{ "type": "Feature", "properties": { "patch_id": "256_50_3997" }, "geometry": { "type": "Polygon", "coordinates": [ [ [ 4685133.241910383105278, 3540758.392305567860603 ], [ 4685133.241910383105278, 3542038.392305567860603 ], [ 4683853.241910383105278, 3542038.392305567860603 ], [ 4683853.241910383105278, 3540758.392305567860603 ], [ 4685133.241910383105278, 3540758.392305567860603 ] ] ] } },
{ "type": "Feature", "properties": { "patch_id": "256_50_4024" }, "geometry": { "type": "Polygon", "coordinates": [ [ [ 4685133.241910383105278, 3558038.392305567860603 ], [ 4685133.241910383105278, 3559318.392305567860603 ], [ 4683853.241910383105278, 3559318.392305567860603 ], [ 4683853.241910383105278, 3558038.392305567860603 ], [ 4685133.241910383105278, 3558038.392305567860603 ] ] ] } },
{ "type": "Feature", "properties": { "patch_id": "256_50_4170" }, "geometry": { "type": "Polygon", "coordinates": [ [ [ 4685773.241910383105278, 3561878.392305567860603 ], [ 4685773.241910383105278, 3563158.392305567860603 ], [ 4684493.241910383105278, 3563158.392305567860603 ], [ 4684493.241910383105278, 3561878.392305567860603 ], [ 4685773.241910383105278, 3561878.392305567860603 ] ] ] } },
{ "type": "Feature", "properties": { "patch_id": "256_50_6277" }, "geometry": { "type": "Polygon", "coordinates": [ [ [ 4695373.241910383105278, 3566358.392305567860603 ], [ 4695373.241910383105278, 3567638.392305567860603 ], [ 4694093.241910383105278, 3567638.392305567860603 ], [ 4694093.241910383105278, 3566358.392305567860603 ], [ 4695373.241910383105278, 3566358.392305567860603 ] ] ] } },
{ "type": "Feature", "properties": { "patch_id": "256_50_6506" }, "geometry": { "type": "Polygon", "coordinates": [ [ [ 4696653.241910383105278, 3533718.392305567860603 ], [ 4696653.241910383105278, 3534998.392305567860603 ], [ 4695373.241910383105278, 3534998.392305567860603 ], [ 4695373.241910383105278, 3533718.392305567860603 ], [ 4696653.241910383105278, 3533718.392305567860603 ] ] ] } },
{ "type": "Feature", "properties": { "patch_id": "256_50_7327" }, "geometry": { "type": "Polygon", "coordinates": [ [ [ 4700493.241910383105278, 3521558.392305567860603 ], [ 4700493.241910383105278, 3522838.392305567860603 ], [ 4699213.241910383105278, 3522838.392305567860603 ], [ 4699213.241910383105278, 3521558.392305567860603 ], [ 4700493.241910383105278, 3521558.392305567860603 ] ] ] } },
{ "type": "Feature", "properties": { "patch_id": "256_50_9468" }, "geometry": { "type": "Polygon", "coordinates": [ [ [ 4710093.241910383105278, 3547798.392305567860603 ], [ 4710093.241910383105278, 3549078.392305567860603 ], [ 4708813.241910383105278, 3549078.392305567860603 ], [ 4708813.241910383105278, 3547798.392305567860603 ], [ 4710093.241910383105278, 3547798.392305567860603 ] ] ] } },
{ "type": "Feature", "properties": { "patch_id": "256_50_9732" }, "geometry": { "type": "Polygon", "coordinates": [ [ [ 4711373.241910383105278, 3537558.392305567860603 ], [ 4711373.241910383105278, 3538838.392305567860603 ], [ 4710093.241910383105278, 3538838.392305567860603 ], [ 4710093.241910383105278, 3537558.392305567860603 ], [ 4711373.241910383105278, 3537558.392305567860603 ] ] ] } },
{ "type": "Feature", "properties": { "patch_id": "256_50_10852" }, "geometry": { "type": "Polygon", "coordinates": [ [ [ 4716493.241910383105278, 3537558.392305567860603 ], [ 4716493.241910383105278, 3538838.392305567860603 ], [ 4715213.241910383105278, 3538838.392305567860603 ], [ 4715213.241910383105278, 3537558.392305567860603 ], [ 4716493.241910383105278, 3537558.392305567860603 ] ] ] } },
{ "type": "Feature", "properties": { "patch_id": "256_50_12082" }, "geometry": { "type": "Polygon", "coordinates": [ [ [ 4722253.241910383105278, 3518358.392305567860603 ], [ 4722253.241910383105278, 3519638.392305567860603 ], [ 4720973.241910383105278, 3519638.392305567860603 ], [ 4720973.241910383105278, 3518358.392305567860603 ], [ 4722253.241910383105278, 3518358.392305567860603 ] ] ] } },
{ "type": "Feature", "properties": { "patch_id": "256_50_13697" }, "geometry": { "type": "Polygon", "coordinates": [ [ [ 4729293.241910383105278, 3566358.392305567860603 ], [ 4729293.241910383105278, 3567638.392305567860603 ], [ 4728013.241910383105278, 3567638.392305567860603 ], [ 4728013.241910383105278, 3566358.392305567860603 ], [ 4729293.241910383105278, 3566358.392305567860603 ] ] ] } },
{ "type": "Feature", "properties": { "patch_id": "256_50_14821" }, "geometry": { "type": "Polygon", "coordinates": [ [ [ 4735053.241910383105278, 3479318.392305567860603 ], [ 4735053.241910383105278, 3480598.392305567860603 ], [ 4733773.241910383105278, 3480598.392305567860603 ], [ 4733773.241910383105278, 3479318.392305567860603 ], [ 4735053.241910383105278, 3479318.392305567860603 ] ] ] } },
{ "type": "Feature", "properties": { "patch_id": "256_50_16692" }, "geometry": { "type": "Polygon", "coordinates": [ [ [ 4747853.241910383105278, 3566358.392305567860603 ], [ 4747853.241910383105278, 3567638.392305567860603 ], [ 4746573.241910383105278, 3567638.392305567860603 ], [ 4746573.241910383105278, 3566358.392305567860603 ], [ 4747853.241910383105278, 3566358.392305567860603 ] ] ] } },
{ "type": "Feature", "properties": { "patch_id": "256_50_18130" }, "geometry": { "type": "Polygon", "coordinates": [ [ [ 4761293.241910383105278, 3550358.392305567860603 ], [ 4761293.241910383105278, 3551638.392305567860603 ], [ 4760013.241910383105278, 3551638.392305567860603 ], [ 4760013.241910383105278, 3550358.392305567860603 ], [ 4761293.241910383105278, 3550358.392305567860603 ] ] ] } },
{ "type": "Feature", "properties": { "patch_id": "256_50_18829" }, "geometry": { "type": "Polygon", "coordinates": [ [ [ 4767693.241910383105278, 3553558.392305567860603 ], [ 4767693.241910383105278, 3554838.392305567860603 ], [ 4766413.241910383105278, 3554838.392305567860603 ], [ 4766413.241910383105278, 3553558.392305567860603 ], [ 4767693.241910383105278, 3553558.392305567860603 ] ] ] } },
{ "type": "Feature", "properties": { "patch_id": "256_50_19536" }, "geometry": { "type": "Polygon", "coordinates": [ [ [ 4774093.241910383105278, 3564438.392305567860603 ], [ 4774093.241910383105278, 3565718.392305567860603 ], [ 4772813.241910383105278, 3565718.392305567860603 ], [ 4772813.241910383105278, 3564438.392305567860603 ], [ 4774093.241910383105278, 3564438.392305567860603 ] ] ] } },
{ "type": "Feature", "properties": { "patch_id": "256_50_22109" }, "geometry": { "type": "Polygon", "coordinates": [ [ [ 4798413.241910383105278, 3533078.392305567860603 ], [ 4798413.241910383105278, 3534358.392305567860603 ], [ 4797133.241910383105278, 3534358.392305567860603 ], [ 4797133.241910383105278, 3533078.392305567860603 ], [ 4798413.241910383105278, 3533078.392305567860603 ] ] ] } },
{ "type": "Feature", "properties": { "patch_id": "sonora_256_50_739" }, "geometry": { "type": "Polygon", "coordinates": [ [ [ 4857048.038819740526378, 3737015.832499695941806 ], [ 4857048.038819740526378, 3738295.832499695941806 ], [ 4855768.038819740526378, 3738295.832499695941806 ], [ 4855768.038819740526378, 3737015.832499695941806 ], [ 4857048.038819740526378, 3737015.832499695941806 ] ] ] } },
{ "type": "Feature", "properties": { "patch_id": "sonora_256_50_975" }, "geometry": { "type": "Polygon", "coordinates": [ [ [ 4859608.038819740526378, 3711415.832499695941806 ], [ 4859608.038819740526378, 3712695.832499695941806 ], [ 4858328.038819740526378, 3712695.832499695941806 ], [ 4858328.038819740526378, 3711415.832499695941806 ], [ 4859608.038819740526378, 3711415.832499695941806 ] ] ] } },
{ "type": "Feature", "properties": { "patch_id": "sonora_256_50_1919" }, "geometry": { "type": "Polygon", "coordinates": [ [ [ 4867928.038819740526378, 3741495.832499695941806 ], [ 4867928.038819740526378, 3742775.832499695941806 ], [ 4866648.038819740526378, 3742775.832499695941806 ], [ 4866648.038819740526378, 3741495.832499695941806 ], [ 4867928.038819740526378, 3741495.832499695941806 ] ] ] } },
{ "type": "Feature", "properties": { "patch_id": "sonora_256_50_2481" }, "geometry": { "type": "Polygon", "coordinates": [ [ [ 4873048.038819740526378, 3747895.832499695941806 ], [ 4873048.038819740526378, 3749175.832499695941806 ], [ 4871768.038819740526378, 3749175.832499695941806 ], [ 4871768.038819740526378, 3747895.832499695941806 ], [ 4873048.038819740526378, 3747895.832499695941806 ] ] ] } },
{ "type": "Feature", "properties": { "patch_id": "sonora_256_50_3239" }, "geometry": { "type": "Polygon", "coordinates": [ [ [ 4880088.038819740526378, 3747255.832499695941806 ], [ 4880088.038819740526378, 3748535.832499695941806 ], [ 4878808.038819740526378, 3748535.832499695941806 ], [ 4878808.038819740526378, 3747255.832499695941806 ], [ 4880088.038819740526378, 3747255.832499695941806 ] ] ] } }
]
}
