{
"type": "FeatureCollection",
"name": "smoke_v1-1_train",
"crs": { "type": "name", "properties": { "name": "urn:ogc:def:crs:EPSG::3089" } },
"features": [
{ "type": "Feature", "properties": { "patch_id": "256_50_18829" }, "geometry": { "type": "Polygon", "coordinates": [ [ [ 4767693.241910383105278, 3553558.392305567860603 ], [ 4767693.241910383105278, 3554838.392305567860603 ], [ 4766413.241910383105278, 3554838.392305567860603 ], [ 4766413.241910383105278, 3553558.392305567860603 ], [ 4767693.241910383105278, 3553558.392305567860603 ] ] ] } },
{ "type": "Feature", "properties": { "patch_id": "256_50_9732" }, "geometry": { "type": "Polygon", "coordinates": [ [ [ 4711373.241910383105278, 3537558.392305567860603 ], [ 4711373.241910383105278, 3538838.392305567860603 ], [ 4710093.241910383105278, 3538838.392305567860603 ], [ 4710093.241910383105278, 3537558.392305567860603 ], [ 4711373.241910383105278, 3537558.392305567860603 ] ] ] } },
{ "type": "Feature", "properties": { "patch_id": "256_50_524" }, "geometry": { "type": "Polygon", "coordinates": [ [ [ 4669133.241910383105278, 3566358.392305567860603 ], [ 4669133.241910383105278, 3567638.392305567860603 ], [ 4667853.241910383105278, 3567638.392305567860603 ], [ 4667853.241910383105278, 3566358.392305567860603 ], [ 4669133.241910383105278, 3566358.392305567860603 ] ] ] } },
{ "type": "Feature", "properties": { "patch_id": "256_50_769" }, "geometry": { "type": "Polygon", "coordinates": [ [ [ 4670413.241910383105278, 3542678.392305567860603 ], [ 4670413.241910383105278, 3543958.392305567860603 ], [ 4669133.241910383105278, 3543958.392305567860603 ], [ 4669133.241910383105278, 3542678.392305567860603 ], [ 4670413.241910383105278, 3542678.392305567860603 ] ] ] } },
{ "type": "Feature", "properties": { "patch_id": "256_50_4024" }, "geometry": { "type": "Polygon", "coordinates": [ [ [ 4685133.241910383105278, 3558038.392305567860603 ], [ 4685133.241910383105278, 3559318.392305567860603 ], [ 4683853.241910383105278, 3559318.392305567860603 ], [ 4683853.241910383105278, 3558038.392305567860603 ], [ 4685133.241910383105278, 3558038.392305567860603 ] ] ] } },
{ "type": "Feature", "properties": { "patch_id": "256_50_3146" }, "geometry": { "type": "Polygon", "coordinates": [ [ [ 4681293.241910383105278, 3533718.392305567860603 ], [ 4681293.241910383105278, 3534998.392305567860603 ], [ 4680013.241910383105278, 3534998.392305567860603 ], [ 4680013.241910383105278, 3533718.392305567860603 ], [ 4681293.241910383105278, 3533718.392305567860603 ] ] ] } },
{ "type": "Feature", "properties": { "patch_id": "256_50_185" }, "geometry": { "type": "Polygon", "coordinates": [ [ [ 4667853.241910383105278, 3529878.392305567860603 ], [ 4667853.241910383105278, 3531158.392305567860603 ], [ 4666573.241910383105278, 3531158.392305567860603 ], [ 4666573.241910383105278, 3529878.392305567860603 ], [ 4667853.241910383105278, 3529878.392305567860603 ] ] ] } }
]
}
