{
"type": "FeatureCollection",
"name": "smoke_train_id",
"crs": { "type": "name", "properties": { "name": "urn:ogc:def:crs:EPSG::3089" } },
"features": [
{ "type": "Feature", "properties": { "patch_id": "256_50_15789" }, "geometry": { "type": "Polygon", "coordinates": [ [ [ 4739533.141914780251682, 3562518.492301777470857 ], [ 4739533.141914780251682, 3563798.492301777470857 ], [ 4738253.141914780251682, 3563798.492301777470857 ], [ 4738253.141914780251682, 3562518.492301777470857 ], [ 4739533.141914780251682, 3562518.492301777470857 ] ] ] } },
{ "type": "Feature", "properties": { "patch_id": "256_50_9341" }, "geometry": { "type": "Polygon", "coordinates": [ [ [ 4709453.141914780251682, 3556118.492301777470857 ], [ 4709453.141914780251682, 3557398.492301777470857 ], [ 4708173.141914780251682, 3557398.492301777470857 ], [ 4708173.141914780251682, 3556118.492301777470857 ], [ 4709453.141914780251682, 3556118.492301777470857 ] ] ] } },
{ "type": "Feature", "properties": { "patch_id": "256_50_524" }, "geometry": { "type": "Polygon", "coordinates": [ [ [ 4669133.141914780251682, 3566358.492301777470857 ], [ 4669133.141914780251682, 3567638.492301777470857 ], [ 4667853.141914780251682, 3567638.492301777470857 ], [ 4667853.141914780251682, 3566358.492301777470857 ], [ 4669133.141914780251682, 3566358.492301777470857 ] ] ] } },
{ "type": "Feature", "properties": { "patch_id": "256_50_769" }, "geometry": { "type": "Polygon", "coordinates": [ [ [ 4670413.141914780251682, 3542678.492301777470857 ], [ 4670413.141914780251682, 3543958.492301777470857 ], [ 4669133.141914780251682, 3543958.492301777470857 ], [ 4669133.141914780251682, 3542678.492301777470857 ], [ 4670413.141914780251682, 3542678.492301777470857 ] ] ] } },
{ "type": "Feature", "properties": { "patch_id": "256_50_4024" }, "geometry": { "type": "Polygon", "coordinates": [ [ [ 4685133.141914780251682, 3558038.492301777470857 ], [ 4685133.141914780251682, 3559318.492301777470857 ], [ 4683853.141914780251682, 3559318.492301777470857 ], [ 4683853.141914780251682, 3558038.492301777470857 ], [ 4685133.141914780251682, 3558038.492301777470857 ] ] ] } },
{ "type": "Feature", "properties": { "patch_id": "256_50_17157" }, "geometry": { "type": "Polygon", "coordinates": [ [ [ 4752333.141914780251682, 3554838.492301777470857 ], [ 4752333.141914780251682, 3556118.492301777470857 ], [ 4751053.141914780251682, 3556118.492301777470857 ], [ 4751053.141914780251682, 3554838.492301777470857 ], [ 4752333.141914780251682, 3554838.492301777470857 ] ] ] } },
{ "type": "Feature", "properties": { "patch_id": "256_50_185" }, "geometry": { "type": "Polygon", "coordinates": [ [ [ 4667853.141914780251682, 3529878.492301777470857 ], [ 4667853.141914780251682, 3531158.492301777470857 ], [ 4666573.141914780251682, 3531158.492301777470857 ], [ 4666573.141914780251682, 3529878.492301777470857 ], [ 4667853.141914780251682, 3529878.492301777470857 ] ] ] } }
]
}
